{
    "links": {
        "self": "http://www.neowsapp.com/rest/v1/neo/3739416?api_key=iIulBulltgU6a56xZRHN4H3l9WmuAYTsLGpBGhQ2"
    },
    "id": "3739416",
    "neo_reference_id": "3739416",
    "name": "(2016 AY65)",
    "designation": "2016 AY65",
    "nasa_jpl_url": "http://ssd.jpl.nasa.gov/sbdb.cgi?sstr=3739416",
    "absolute_magnitude_h": 24.5,
    "estimated_diameter": {
        "kilometers": {
            "estimated_diameter_min": 0.0334622374,
            "estimated_diameter_max": 0.0748238376
        },
        "meters": {
            "estimated_diameter_min": 33.4622374455,
            "estimated_diameter_max": 74.8238376074
        },
        "miles": {
            "estimated_diameter_min": 0.0207924639,
            "estimated_diameter_max": 0.0464933628
        },
        "feet": {
            "estimated_diameter_min": 109.7842471007,
            "estimated_diameter_max": 245.4850393757
        }
    },
    "is_potentially_hazardous_asteroid": false,
    "close_approach_data": [
        {
            "close_approach_date": "2016-01-01",
            "close_approach_date_full": "2016-Jan-01 23:32",
            "epoch_date_close_approach": 1451691120000,
            "relative_velocity": {
                "kilometers_per_second": "3.8092748641",
                "kilometers_per_hour": "13713.3895106194",
                "miles_per_hour": "8520.9669434179"
            },
            "miss_distance": {
                "astronomical": "0.1413439099",
                "lunar": "54.9827809511",
                "kilometers": "21144747.858511913",
                "miles": "13138737.0679458794"
            },
            "orbiting_body": "Earth"
        }
    ],
    "orbital_data": {
        "orbit_id": "6",
        "orbit_determination_date": "2017-04-06 08:29:18",
        "first_observation_date": "2016-01-09",
        "last_observation_date": "2016-01-27",
        "data_arc_in_days": 18,
        "observations_used": 25,
        "orbit_uncertainty": "8",
        "minimum_orbit_intersection": ".133539",
        "jupiter_tisserand_invariant": "4.467",
        "epoch_osculation": "2457399.5",
        "eccentricity": ".2734575371256625",
        "semi_major_axis": "1.513809118930523",
        "inclination": "6.894575672583422",
        "ascending_node_longitude": "124.3240687818707",
        "orbital_period": "680.3072549639771",
        "perihelion_distance": "1.099846605589413",
        "perihelion_argument": "321.8137073626996",
        "aphelion_distance": "1.927771632271633",
        "perihelion_time": "2457371.916795014321",
        "mean_anomaly": "14.59627796468265",
        "mean_motion": ".5291726604018979",
        "equinox": "J2000",
        "orbit_class": {
            "orbit_class_type": "AMO",
            "orbit_class_description": "Near-Earth asteroid orbits similar to that of 1221 Amor",
            "orbit_class_range": "1.017 AU < q (perihelion) < 1.3 AU"
        }
    },
    "is_sentry_object": false
}